STARLINK-5529           
1 56495U 23064AZ  26068.48435253  .00000152  00000+0  20532-4 0  9993
2 56495  69.9996 104.9006 0003324 264.4846  95.5934 14.98326175156200
SATELIOT_4              
1 60537U 24149BX  26068.74229552  .00002907  00000+0  26256-3 0  9990
2 60537  97.6789 145.1106 0002390  45.2073 314.9342 14.96254023 85108
